{
    "links": {
        "self": "http://www.neowsapp.com/rest/v1/neo/3683467?api_key=iIulBulltgU6a56xZRHN4H3l9WmuAYTsLGpBGhQ2"
    },
    "id": "3683467",
    "neo_reference_id": "3683467",
    "name": "(2014 QO295)",
    "designation": "2014 QO295",
    "nasa_jpl_url": "http://ssd.jpl.nasa.gov/sbdb.cgi?sstr=3683467",
    "absolute_magnitude_h": 26.8,
    "estimated_diameter": {
        "kilometers": {
            "estimated_diameter_min": 0.0116025908,
            "estimated_diameter_max": 0.0259441818
        },
        "meters": {
            "estimated_diameter_min": 11.6025908209,
            "estimated_diameter_max": 25.9441817907
        },
        "miles": {
            "estimated_diameter_min": 0.0072095135,
            "estimated_diameter_max": 0.0161209622
        },
        "feet": {
            "estimated_diameter_min": 38.066244069,
            "estimated_diameter_max": 85.1187093863
        }
    },
    "is_potentially_hazardous_asteroid": false,
    "close_approach_data": [
        {
            "close_approach_date": "2014-08-31",
            "close_approach_date_full": "2014-Aug-31 15:46",
            "epoch_date_close_approach": 1409499960000,
            "relative_velocity": {
                "kilometers_per_second": "9.9801074514",
                "kilometers_per_hour": "35928.3868248955",
                "miles_per_hour": "22324.5023579469"
            },
            "miss_distance": {
                "astronomical": "0.0120940462",
                "lunar": "4.7045839718",
                "kilometers": "1809243.551201594",
                "miles": "1124211.8123222372"
            },
            "orbiting_body": "Earth"
        },
        {
            "close_approach_date": "2015-01-27",
            "close_approach_date_full": "2015-Jan-27 19:53",
            "epoch_date_close_approach": 1422388380000,
            "relative_velocity": {
                "kilometers_per_second": "6.3815285632",
                "kilometers_per_hour": "22973.5028274944",
                "miles_per_hour": "14274.8412430062"
            },
            "miss_distance": {
                "astronomical": "0.4932450823",
                "lunar": "191.8723370147",
                "kilometers": "73788413.700054701",
                "miles": "45849994.1807328338"
            },
            "orbiting_body": "Earth"
        },
        {
            "close_approach_date": "2051-09-05",
            "close_approach_date_full": "2051-Sep-05 04:02",
            "epoch_date_close_approach": 2577499320000,
            "relative_velocity": {
                "kilometers_per_second": "8.3029234223",
                "kilometers_per_hour": "29890.5243202284",
                "miles_per_hour": "18572.8094033108"
            },
            "miss_distance": {
                "astronomical": "0.0842954574",
                "lunar": "32.7909329286",
                "kilometers": "12610420.877715738",
                "miles": "7835752.1847556644"
            },
            "orbiting_body": "Mars"
        }
    ],
    "orbital_data": {
        "orbit_id": "4",
        "orbit_determination_date": "2019-07-18 07:27:14",
        "first_observation_date": "2014-08-24",
        "last_observation_date": "2014-08-27",
        "data_arc_in_days": 3,
        "observations_used": 11,
        "orbit_uncertainty": "7",
        "minimum_orbit_intersection": ".011801",
        "jupiter_tisserand_invariant": "4.458",
        "epoch_osculation": "2459000.5",
        "eccentricity": ".4166604450894686",
        "semi_major_axis": "1.492254830013587",
        "inclination": "3.873783278192156",
        "ascending_node_longitude": "148.8640355598452",
        "orbital_period": "665.8293218717978",
        "perihelion_distance": ".8704912683532164",
        "perihelion_argument": "247.9188184196743",
        "aphelion_distance": "2.114018391673957",
        "perihelion_time": "2458943.858219427514",
        "mean_anomaly": "30.62502706965676",
        "mean_motion": ".5406791022479426",
        "equinox": "J2000",
        "orbit_class": {
            "orbit_class_type": "APO",
            "orbit_class_description": "Near-Earth asteroid orbits which cross the Earth’s orbit similar to that of 1862 Apollo",
            "orbit_class_range": "a (semi-major axis) > 1.0 AU; q (perihelion) < 1.017 AU"
        }
    },
    "is_sentry_object": false
}